{
  "type": "FeatureCollection",
  "features": [
    {
      "type": "Feature",
      "properties": {
        "norad_id": 31439,
        "name": "FENGYUN 1C DEB",
        "group": "fengyun-1c-debris",
        "lat": -36.893678282654,
        "lon": 10.584348802753846,
        "alt_km": 1013.5761404313516,
        "timestamp": "2025-12-24T03:53:29.929543+00:00",
        "meta_object_name": "FENGYUN 1C DEB",
        "meta_object_id": "1999-025BUB",
        "meta_epoch": "2025-12-16T06:53:28.781952",
        "meta_mean_motion": 13.95585021,
        "meta_eccentricity": 0.01379888,
        "meta_inclination": 98.9165,
        "meta_ra_of_asc_node": 356.1962,
        "meta_arg_of_pericenter": 152.0725,
        "meta_mean_anomaly": 227.5292,
        "meta_ephemeris_type": 0,
        "meta_classification_type": "U",
        "meta_norad_cat_id": 31439,
        "meta_element_set_no": 999,
        "meta_rev_at_epoch": 63282,
        "meta_bstar": 0.00051197114,
        "meta_mean_motion_dot": 7.12e-06,
        "meta_mean_motion_ddot": 0,
        "tle_line1": "1 31439U 99025BUB 25350.28713868  .00000712  00000+0  51197-3 0  9998",
        "tle_line2": "2 31439  98.9165 356.1962 0137988 152.0725 227.5292 13.95585021632829"
      },
      "geometry": {
        "type": "Point",
        "coordinates": [
          10.584348802753846,
          -36.893678282654
        ]
      }
    },
    {
      "type": "Feature",
      "properties": {
        "norad_id": 31440,
        "name": "FENGYUN 1C DEB",
        "group": "fengyun-1c-debris",
        "lat": 25.65110543842096,
        "lon": -89.41918091079759,
        "alt_km": 791.8871023775591,
        "timestamp": "2025-12-24T03:53:29.929553+00:00",
        "meta_object_name": "FENGYUN 1C DEB",
        "meta_object_id": "1999-025BUC",
        "meta_epoch": "2025-12-20T23:57:52.458048",
        "meta_mean_motion": 14.36774985,
        "meta_eccentricity": 0.00371554,
        "meta_inclination": 98.7467,
        "meta_ra_of_asc_node": 83.1278,
        "meta_arg_of_pericenter": 316.3908,
        "meta_mean_anomaly": 43.4343,
        "meta_ephemeris_type": 0,
        "meta_classification_type": "U",
        "meta_norad_cat_id": 31440,
        "meta_element_set_no": 999,
        "meta_rev_at_epoch": 96444,
        "meta_bstar": 0.0011949731,
        "meta_mean_motion_dot": 3.51e-05,
        "meta_mean_motion_ddot": 0,
        "tle_line1": "1 31440U 99025BUC 25354.99852382  .00003510  00000+0  11950-2 0  9998",
        "tle_line2": "2 31440  98.7467  83.1278 0037155 316.3908  43.4343 14.36774985964447"
      },
      "geometry": {
        "type": "Point",
        "coordinates": [
          -89.41918091079759,
          25.65110543842096
        ]
      }
    },
    {
      "type": "Feature",
      "properties": {
        "norad_id": 31441,
        "name": "FENGYUN 1C DEB",
        "group": "fengyun-1c-debris",
        "lat": -55.88780132627717,
        "lon": -123.28742944111767,
        "alt_km": 578.2799488409446,
        "timestamp": "2025-12-24T03:53:29.929563+00:00",
        "meta_object_name": "FENGYUN 1C DEB",
        "meta_object_id": "1999-025BUD",
        "meta_epoch": "2025-12-20T20:24:46.910016",
        "meta_mean_motion": 14.75706647,
        "meta_eccentricity": 0.01016008,
        "meta_inclination": 99.3109,
        "meta_ra_of_asc_node": 218.8859,
        "meta_arg_of_pericenter": 310.6714,
        "meta_mean_anomaly": 48.5694,
        "meta_ephemeris_type": 0,
        "meta_classification_type": "U",
        "meta_norad_cat_id": 31441,
        "meta_element_set_no": 999,
        "meta_rev_at_epoch": 64210,
        "meta_bstar": 0.0031315146,
        "meta_mean_motion_dot": 0.00023297,
        "meta_mean_motion_ddot": 0,
        "tle_line1": "1 31441U 99025BUD 25354.85054294  .00023297  00000+0  31315-2 0  9991",
        "tle_line2": "2 31441  99.3109 218.8859 0101600 310.6714  48.5694 14.75706647642103"
      },
      "geometry": {
        "type": "Point",
        "coordinates": [
          -123.28742944111767,
          -55.88780132627717
        ]
      }
    },
    {
      "type": "Feature",
      "properties": {
        "norad_id": 31442,
        "name": "FENGYUN 1C DEB",
        "group": "fengyun-1c-debris",
        "lat": 28.295605719441422,
        "lon": 79.3528848210808,
        "alt_km": 740.8846011956348,
        "timestamp": "2025-12-24T03:53:29.929573+00:00",
        "meta_object_name": "FENGYUN 1C DEB",
        "meta_object_id": "1999-025BUE",
        "meta_epoch": "2025-12-23T12:41:18.144672",
        "meta_mean_motion": 14.33949749,
        "meta_eccentricity": 0.0078508,
        "meta_inclination": 98.53,
        "meta_ra_of_asc_node": 83.3625,
        "meta_arg_of_pericenter": 340.6077,
        "meta_mean_anomaly": 19.2124,
        "meta_ephemeris_type": 0,
        "meta_classification_type": "U",
        "meta_norad_cat_id": 31442,
        "meta_element_set_no": 999,
        "meta_rev_at_epoch": 97515,
        "meta_bstar": 0.00031617,
        "meta_mean_motion_dot": 8.69e-06,
        "meta_mean_motion_ddot": 0,
        "tle_line1": "1 31442U 99025BUE 25357.52868223  .00000869  00000+0  31617-3 0  9990",
        "tle_line2": "2 31442  98.5300  83.3625 0078508 340.6077  19.2124 14.33949749975152"
      },
      "geometry": {
        "type": "Point",
        "coordinates": [
          79.3528848210808,
          28.295605719441422
        ]
      }
    },
    {
      "type": "Feature",
      "properties": {
        "norad_id": 31443,
        "name": "FENGYUN 1C DEB",
        "group": "fengyun-1c-debris",
        "lat": -18.939416423347012,
        "lon": 101.86999504264548,
        "alt_km": 716.3893065922503,
        "timestamp": "2025-12-24T03:53:29.929584+00:00",
        "meta_object_name": "FENGYUN 1C DEB",
        "meta_object_id": "1999-025BUF",
        "meta_epoch": "2025-12-22T12:11:57.510528",
        "meta_mean_motion": 14.4877707,
        "meta_eccentricity": 0.01913588,
        "meta_inclination": 99.2113,
        "meta_ra_of_asc_node": 96.8738,
        "meta_arg_of_pericenter": 69.2188,
        "meta_mean_anomaly": 292.9389,
        "meta_ephemeris_type": 0,
        "meta_classification_type": "U",
        "meta_norad_cat_id": 31443,
        "meta_element_set_no": 999,
        "meta_rev_at_epoch": 67083,
        "meta_bstar": 0.0011434447,
        "meta_mean_motion_dot": 5.391e-05,
        "meta_mean_motion_ddot": 0,
        "tle_line1": "1 31443U 99025BUF 25356.50830452  .00005391  00000+0  11434-2 0  9990",
        "tle_line2": "2 31443  99.2113  96.8738 0191358  69.2188 292.9389 14.48777070670835"
      },
      "geometry": {
        "type": "Point",
        "coordinates": [
          101.86999504264548,
          -18.939416423347012
        ]
      }
    },
    {
      "type": "Feature",
      "properties": {
        "norad_id": 31444,
        "name": "FENGYUN 1C DEB",
        "group": "fengyun-1c-debris",
        "lat": 70.38283002494653,
        "lon": 147.44573449747259,
        "alt_km": 638.3813035464764,
        "timestamp": "2025-12-24T03:53:29.929594+00:00",
        "meta_object_name": "FENGYUN 1C DEB",
        "meta_object_id": "1999-025BUG",
        "meta_epoch": "2025-12-22T02:24:16.096320",
        "meta_mean_motion": 14.70070692,
        "meta_eccentricity": 0.00626396,
        "meta_inclination": 98.9296,
        "meta_ra_of_asc_node": 299.0143,
        "meta_arg_of_pericenter": 44.119,
        "meta_mean_anomaly": 316.4986,
        "meta_ephemeris_type": 0,
        "meta_classification_type": "U",
        "meta_norad_cat_id": 31444,
        "meta_element_set_no": 999,
        "meta_rev_at_epoch": 97626,
        "meta_bstar": 0.0017329246,
        "meta_mean_motion_dot": 0.00010681,
        "meta_mean_motion_ddot": 0,
        "tle_line1": "1 31444U 99025BUG 25356.10018630  .00010681  00000+0  17329-2 0  9990",
        "tle_line2": "2 31444  98.9296 299.0143 0062639  44.1190 316.4986 14.70070692976267"
      },
      "geometry": {
        "type": "Point",
        "coordinates": [
          147.44573449747259,
          70.38283002494653
        ]
      }
    },
    {
      "type": "Feature",
      "properties": {
        "norad_id": 31447,
        "name": "FENGYUN 1C DEB",
        "group": "fengyun-1c-debris",
        "lat": 59.47739643576498,
        "lon": 24.104559541567784,
        "alt_km": 826.1211170781762,
        "timestamp": "2025-12-24T03:53:29.929604+00:00",
        "meta_object_name": "FENGYUN 1C DEB",
        "meta_object_id": "1999-025BUK",
        "meta_epoch": "2025-12-14T21:01:38.356896",
        "meta_mean_motion": 14.2403744,
        "meta_eccentricity": 0.02304397,
        "meta_inclination": 98.9919,
        "meta_ra_of_asc_node": 30.1793,
        "meta_arg_of_pericenter": 349.1545,
        "meta_mean_anomaly": 10.471,
        "meta_ephemeris_type": 0,
        "meta_classification_type": "U",
        "meta_norad_cat_id": 31447,
        "meta_element_set_no": 999,
        "meta_rev_at_epoch": 64882,
        "meta_bstar": 0.00018562598,
        "meta_mean_motion_dot": 5.08e-06,
        "meta_mean_motion_ddot": 0,
        "tle_line1": "1 31447U 99025BUK 25348.87613839  .00000508  00000+0  18563-3 0  9999",
        "tle_line2": "2 31447  98.9919  30.1793 0230439 349.1545  10.4710 14.24037440648821"
      },
      "geometry": {
        "type": "Point",
        "coordinates": [
          24.104559541567784,
          59.47739643576498
        ]
      }
    }
  ]
}